[{"OBJECT_NAME":"STARLINK-5351","OBJECT_ID":"2023-065J","EPOCH":"2026-03-09T22:00:01.999584","MEAN_MOTION":15.06704104,"ECCENTRICITY":9.505e-5,"INCLINATION":43.001,"RA_OF_ASC_NODE":209.1507,"ARG_OF_PERICENTER":288.5874,"MEAN_ANOMALY":241.0448,"EPHEMERIS_TYPE":0,"CLASSIFICATION_TYPE":"U","NORAD_CAT_ID":56511,"ELEMENT_SET_NO":999,"REV_AT_EPOCH":572,"BSTAR":0.0045262887,"MEAN_MOTION_DOT":0.0006883,"MEAN_MOTION_DDOT":0},{"OBJECT_NAME":"FENGYUN 1C DEB","OBJECT_ID":"1999-025ANY","EPOCH":"2026-03-09T08:51:51.179904","MEAN_MOTION":14.80233032,"ECCENTRICITY":0.01316132,"INCLINATION":98.9514,"RA_OF_ASC_NODE":17.5129,"ARG_OF_PERICENTER":213.735,"MEAN_ANOMALY":278.8739,"EPHEMERIS_TYPE":0,"CLASSIFICATION_TYPE":"U","NORAD_CAT_ID":30641,"ELEMENT_SET_NO":999,"REV_AT_EPOCH":1813,"BSTAR":0.00059169636,"MEAN_MOTION_DOT":5.147e-5,"MEAN_MOTION_DDOT":0}]
